ONEWEB-0027             
1 45432U 20020J   24094.91455931  .00000027  00000+0  37020-4 0  9992
2 45432  87.9234 165.8874 0002446 108.6077 251.5320 13.17649978200440
ONEWEB-0064             
1 45433U 20020K   24095.47509330  .00000059  00000+0  12996-3 0  9997
2 45433  87.9036 180.9044 0002091 112.6926 247.4423 13.11414443197356
ONEWEB-0018             
1 45434U 20020L   24094.74458079 -.00000040  00000+0 -14880-3 0  9996
2 45434  87.9037 181.0415 0001855 102.7524 257.3811 13.11420363197194
ONEWEB-0083             
1 45435U 20020M   24094.73321686 -.00000453  00000+0 -13137-2 0  9990
2 45435  87.9037 181.0238 0002028 105.6755 254.4596 13.11418773197234
ONEWEB-0095             
1 45436U 20020N   24094.80154394 -.00000511  00000+0 -14786-2 0  9995
2 45436  87.9034 181.0471 0002370 102.3584 257.7809 13.11416774197248
ONEWEB-0092             
1 45437U 20020P   24094.76893699  .00000499  00000+0  13715-2 0  9993
2 45437  87.9036 181.0346 0002326 100.8398 259.2992 13.11418544197358
ONEWEB-0085             
1 45438U 20020Q   24095.18450643 -.00000478  00000+0 -13832-2 0  9998
2 45438  87.9037 180.9578 0001808 105.9223 254.2105 13.11418947197305
ONEWEB-0096             
1 45439U 20020R   24094.73484527 -.00000446  00000+0 -12934-2 0  9994
2 45439  87.9035 181.0184 0001732 102.2203 257.9119 13.11416662197221
